{"type":"FeatureCollection","metadata":{"generated":"2026-10-02","source":"OpenStreetMap contributors (ODbL)","note":"peninsula: outline used to decide whether a coordinate is on Te Atatū Peninsula. east_west: Taikata Road + Harbour View Road (south of it = Harbourview). te_atatu_road: Te Atatū Road north of the town centre, extended due north to the coast (west = Matipo, east = Beach)."},"features":[{"type":"Feature","properties":{"id":"peninsula"},"geometry":{"type":"Polygon","coordinates":[[[174.633311,-36.840043],[174.633371,-36.841182],[174.646164,-36.855155],[174.648005,-36.856264],[174.64919,-36.856578],[174.65314,-36.857344],[174.661654,-36.838503],[174.662071,-36.835782],[174.662095,-36.83559],[174.662195,-36.834622],[174.662212,-36.834445],[174.662179,-36.834194],[174.661215,-36.832012],[174.659931,-36.830276],[174.649764,-36.82451],[174.648989,-36.824105],[174.646549,-36.824314],[174.644716,-36.824983],[174.643579,-36.825692],[174.633333,-36.839232],[174.633311,-36.840043]]]}},{"type":"Feature","properties":{"id":"east_west"},"geometry":{"type":"LineString","coordinates":[[174.6384616,-36.8384068],[174.6390015,-36.8386267],[174.6394872,-36.8388226],[174.6395798,-36.83886],[174.6404724,-36.83922],[174.6406784,-36.8393071],[174.641773,-36.8397499],[174.6418073,-36.8397634],[174.6441716,-36.8407217],[174.6442652,-36.8407593],[174.6447524,-36.8409548],[174.6454724,-36.841241],[174.6461932,-36.8415379],[174.6462359,-36.8415397],[174.6463413,-36.8415859],[174.6463906,-36.8416131],[174.6464475,-36.8416403],[174.6465492,-36.8416788],[174.6465987,-36.8417114],[174.646721,-36.8417648],[174.6468236,-36.8417933],[174.6471,-36.8418989],[174.6471626,-36.841917],[174.6472127,-36.8419284],[174.6472694,-36.8419385],[174.6473737,-36.841941],[174.6474717,-36.8419339],[174.6476177,-36.8419144],[174.6477009,-36.8419016],[174.6478081,-36.8418833],[174.6481556,-36.8418117],[174.6499688,-36.8414506],[174.6502018,-36.8414035],[174.6507677,-36.8412881],[174.651008,-36.8412393],[174.6511184,-36.8412107],[174.6511735,-36.8411964],[174.6513647,-36.8411499],[174.6514674,-36.8411552],[174.6515337,-36.841088],[174.6515545,-36.8411572],[174.6515765,-36.8410793],[174.6515833,-36.8411576],[174.6516169,-36.8411626],[174.651659,-36.8410642],[174.6516698,-36.8411755],[174.6517365,-36.8411996],[174.6517403,-36.8410453],[174.651941,-36.8410214],[174.6520097,-36.8411397],[174.6520671,-36.8410992],[174.6521399,-36.8409916],[174.6521551,-36.8410381],[174.652317,-36.8409796],[174.6525914,-36.8409283],[174.6527569,-36.8408911],[174.653027,-36.8408303],[174.6531913,-36.8407957],[174.6533321,-36.840766],[174.6539734,-36.8406308],[174.6544121,-36.8405384],[174.6551041,-36.8403925],[174.6553725,-36.8403355],[174.6554287,-36.8403236],[174.655629,-36.840281],[174.6562953,-36.8401395],[174.6563982,-36.8400949],[174.6564118,-36.8401268],[174.6564901,-36.8400551],[174.656525,-36.84004],[174.6565451,-36.8401124],[174.656728,-36.839995],[174.6567511,-36.8400886],[174.6567871,-36.8400758],[174.6568489,-36.8399883],[174.6568742,-36.8400398],[174.6570191,-36.8399805],[174.6580286,-36.8397613],[174.6588198,-36.8395928],[174.6605508,-36.839223],[174.6605868,-36.8392149],[174.6609642,-36.8391292],[174.6611448,-36.8390836]]}},{"type":"Feature","properties":{"id":"te_atatu_road"},"geometry":{"type":"LineString","coordinates":[[174.6516945,-36.8429287],[174.6517018,-36.8428262],[174.6517077,-36.8427421],[174.6517276,-36.84246],[174.6517491,-36.8421552],[174.6517694,-36.8418669],[174.6517969,-36.8414775],[174.6518339,-36.8413936],[174.6517788,-36.8413904],[174.6517584,-36.8412818],[174.6518955,-36.8412432],[174.6517436,-36.8412063],[174.6517485,-36.8410382],[174.651908,-36.8410085],[174.6518682,-36.8409581],[174.651756,-36.8408838],[174.6518085,-36.8408725],[174.6517499,-36.8407845],[174.6515978,-36.8403187],[174.6514227,-36.8397893],[174.6513916,-36.8396954],[174.651348,-36.8395634],[174.6511215,-36.8388786],[174.6511006,-36.8388205],[174.6510843,-36.8387751],[174.6508951,-36.8381936],[174.6508386,-36.83802],[174.6507911,-36.8378737],[174.6507858,-36.8378575],[174.6507364,-36.8377067],[174.6507213,-36.8376604],[174.6502035,-36.8360724],[174.6500813,-36.8357221],[174.6499522,-36.8353317],[174.6498977,-36.8351589],[174.6498712,-36.8350776],[174.6497612,-36.8347397],[174.6496441,-36.8343799],[174.64963,-36.8343366],[174.6495518,-36.8341182],[174.6495055,-36.8340194],[174.649451,-36.8339205],[174.6493694,-36.8338219],[174.6492012,-36.8336683],[174.6488717,-36.8333865],[174.6487833,-36.8333109],[174.648696,-36.8332363],[174.6485588,-36.8331174],[174.6476969,-36.8323731],[174.6471554,-36.8319055],[174.6471279,-36.8318822],[174.6470615,-36.8318258],[174.646897,-36.8316857],[174.6467971,-36.8315843],[174.6467607,-36.8315464],[174.6467363,-36.8314915],[174.646726,-36.8314429],[174.6467007,-36.831069],[174.6466593,-36.8304367],[174.6466174,-36.8297963],[174.6465957,-36.829464],[174.6465586,-36.8288962],[174.646555,-36.8288418],[174.6465507,-36.8287763],[174.6464857,-36.8277957],[174.6464837,-36.827766],[174.6464274,-36.8269172],[174.6464234,-36.8268573],[174.6464195,-36.8267935],[174.6463959,-36.8264073],[174.6463672,-36.8259391],[174.6463663,-36.8259085],[174.6463645,-36.8258349],[174.6463629,-36.8257747],[174.6463653,-36.8257362],[174.6463693,-36.8256705],[174.6463559,-36.8254956],[174.6463535,-36.8254645],[174.6463464,-36.8253712],[174.6463445,-36.8253464],[174.6463425,-36.8253169],[174.6463425,-36.805316899999994]]}}]}
